{"fetched_at":"2026-03-29T02:12:04Z","count":15717,"tles":[{"name":"COSMOS 2527 (756)","line1":"1 43508U 18053A   26087.37166813  .00000046  00000+0  00000+0 0  9993","line2":"2 43508  65.5335  76.6017 0009308 247.7954 112.1166  2.13101960 60551","category":"Other"}]}